CCSDS_OMM_VERS = 2.0
CREATION_DATE  = 
ORIGINATOR     = 

OBJECT_NAME    = CZ-2C R/B
OBJECT_ID      = 2022-132E
CENTER_NAME    = EARTH
REF_FRAME      = TEME
TIME_SYSTEM    = UTC
MEAN_ELEMENT_THEORY = SGP/SGP4

EPOCH          = 2025-12-16T23:34:52.604256
MEAN_MOTION    = 15.55076638
ECCENTRICITY   = .00224691
INCLINATION    = 97.2939
RA_OF_ASC_NODE = 347.2630
ARG_OF_PERICENTER = 42.9724
MEAN_ANOMALY   = 317.3280

EPHEMERIS_TYPE = 0
CLASSIFICATION_TYPE = U
NORAD_CAT_ID   = 54039
ELEMENT_SET_NO = 999
REV_AT_EPOCH   = 17749
BSTAR          = .40695556E-3
MEAN_MOTION_DOT = .27615E-3
MEAN_MOTION_DDOT = 0

CCSDS_OMM_VERS = 2.0
CREATION_DATE  = 
ORIGINATOR     = 

OBJECT_NAME    = GSLV R/B
OBJECT_ID      = 2022-138AN
CENTER_NAME    = EARTH
REF_FRAME      = TEME
TIME_SYSTEM    = UTC
MEAN_ELEMENT_THEORY = SGP/SGP4

EPOCH          = 2025-12-17T01:39:59.588352
MEAN_MOTION    = 14.96154275
ECCENTRICITY   = .00242014
INCLINATION    = 87.3825
RA_OF_ASC_NODE = 194.0242
ARG_OF_PERICENTER = 91.4866
MEAN_ANOMALY   = 268.9137

EPHEMERIS_TYPE = 0
CLASSIFICATION_TYPE = U
NORAD_CAT_ID   = 54149
ELEMENT_SET_NO = 999
REV_AT_EPOCH   = 17157
BSTAR          = .15306239E-3
MEAN_MOTION_DOT = .1762E-4
MEAN_MOTION_DDOT = 0

CCSDS_OMM_VERS = 2.0
CREATION_DATE  = 
ORIGINATOR     = 

OBJECT_NAME    = XRISM
OBJECT_ID      = 2023-137A
CENTER_NAME    = EARTH
REF_FRAME      = TEME
TIME_SYSTEM    = UTC
MEAN_ELEMENT_THEORY = SGP/SGP4

EPOCH          = 2025-12-17T07:52:30.313632
MEAN_MOTION    = 15.10380303
ECCENTRICITY   = .00077383
INCLINATION    = 31.0020
RA_OF_ASC_NODE = 95.9175
ARG_OF_PERICENTER = 291.3140
MEAN_ANOMALY   = 68.6671

EPHEMERIS_TYPE = 0
CLASSIFICATION_TYPE = U
NORAD_CAT_ID   = 57800
ELEMENT_SET_NO = 999
REV_AT_EPOCH   = 12532
BSTAR          = .22596037E-3
MEAN_MOTION_DOT = .3899E-4
MEAN_MOTION_DDOT = 0

CCSDS_OMM_VERS = 2.0
CREATION_DATE  = 
ORIGINATOR     = 

OBJECT_NAME    = ACS3
OBJECT_ID      = 2024-077B
CENTER_NAME    = EARTH
REF_FRAME      = TEME
TIME_SYSTEM    = UTC
MEAN_ELEMENT_THEORY = SGP/SGP4

EPOCH          = 2025-12-17T07:16:40.962432
MEAN_MOTION    = 13.85705147
ECCENTRICITY   = .00766427
INCLINATION    = 97.2641
RA_OF_ASC_NODE = 305.8896
ARG_OF_PERICENTER = 327.3215
MEAN_ANOMALY   = 32.3217

EPHEMERIS_TYPE = 0
CLASSIFICATION_TYPE = U
NORAD_CAT_ID   = 59588
ELEMENT_SET_NO = 999
REV_AT_EPOCH   = 8277
BSTAR          = .1607934E-1
MEAN_MOTION_DOT = .18842E-3
MEAN_MOTION_DDOT = 0

CCSDS_OMM_VERS = 2.0
CREATION_DATE  = 
ORIGINATOR     = 

OBJECT_NAME    = SZ-21 MODULE
OBJECT_ID      = 2025-246C
CENTER_NAME    = EARTH
REF_FRAME      = TEME
TIME_SYSTEM    = UTC
MEAN_ELEMENT_THEORY = SGP/SGP4

EPOCH          = 2025-12-17T06:26:59.040960
MEAN_MOTION    = 15.62718015
ECCENTRICITY   = .00059901
INCLINATION    = 41.4771
RA_OF_ASC_NODE = 348.4140
ARG_OF_PERICENTER = 284.3104
MEAN_ANOMALY   = 75.7070

EPHEMERIS_TYPE = 0
CLASSIFICATION_TYPE = U
NORAD_CAT_ID   = 66515
ELEMENT_SET_NO = 999
REV_AT_EPOCH   = 515
BSTAR          = .25031156E-3
MEAN_MOTION_DOT = .22864E-3
MEAN_MOTION_DDOT = 0

