CZ-2C R/B               
1 54039U 22132E   25350.98255329  .00027615  00000+0  40696-3 0  9997
2 54039  97.2939 347.2630 0022469  42.9724 317.3280 15.55076638177496
GSLV R/B                
1 54149U 22138AN  25351.06943968  .00001762  00000+0  15306-3 0  9993
2 54149  87.3825 194.0242 0024201  91.4866 268.9137 14.96154275171574
XRISM                   
1 57800U 23137A   25351.32812863  .00003899  00000+0  22596-3 0  9990
2 57800  31.0020  95.9175 0007738 291.3140  68.6671 15.10380303125320
ACS3                    
1 59588U 24077B   25351.30325188  .00018842  00000+0  16079-1 0  9997
2 59588  97.2641 305.8896 0076642 327.3215  32.3217 13.85705147 82776
SZ-21 MODULE            
1 66515U 25246C   25351.26873890  .00022864  00000+0  25031-3 0  9996
2 66515  41.4771 348.4140 0005990 284.3104  75.7070 15.62718015  5151
